      2.10          N: GNSS NAV DATA                        RINEX VERSION / TYPE
fic2rin                                 05/04/2020 00:17:41 PGM / RUN BY / DATE
                                                            END OF HEADER
 5 20  5  3 10  0  0.0-1.197261735797e-05-6.821210263297e-13 0.000000000000e+00
    7.700000000000e+01-8.121875000000e+01 5.000922594214e-09-1.448323345807e+00
   -4.168599843979e-06 5.843643681146e-03 4.313886165619e-06 5.153648170471e+03
    3.600000000000e+04 1.862645149231e-07-1.822616972387e+00-5.215406417847e-08
    9.520102867297e-01 2.850000000000e+02 7.869056492760e-01-8.450709148814e-09
   -1.242908915002e-10 1.000000000000e+00 2.104000000000e+03 0.000000000000e+00
    2.400000000000e+00 0.000000000000e+00-1.117587089539e-08 7.700000000000e+01
    2.880000000000e+04 4.000000000000e+00
 3 20  5  3 10  0  0.0-1.639914698899e-04-1.170974428533e-11 0.000000000000e+00
    5.400000000000e+01-8.378125000000e+01 4.732697135832e-09 8.683916521351e-01
   -4.587695002556e-06 2.786800963804e-03 5.833804607391e-06 5.153564470291e+03
    3.600000000000e+04 3.166496753693e-08-1.791048240371e+00 7.078051567078e-08
    9.651003416516e-01 2.691562500000e+02 6.904621268276e-01-8.397135488684e-09
   -2.357241045694e-10 1.000000000000e+00 2.104000000000e+03 0.000000000000e+00
    2.400000000000e+00 0.000000000000e+00 1.862645149231e-09 5.400000000000e+01
    2.880000000000e+04 4.000000000000e+00
 6 20  5  3 10  0  0.0-2.645878121257e-04-7.162270776462e-12 0.000000000000e+00
    4.200000000000e+01 5.871875000000e+01 4.144101189877e-09 2.039798754880e+00
    3.106892108917e-06 1.972004887648e-03 5.712732672691e-06 5.153530065536e+03
    3.600000000000e+04-2.235174179077e-08-2.839943477765e+00-1.862645149231e-08
    9.796472976707e-01 2.773437500000e+02-1.067804533202e+00-8.073550581502e-09
    4.878774649119e-10 1.000000000000e+00 2.104000000000e+03 0.000000000000e+00
    2.400000000000e+00 0.000000000000e+00 4.656612873077e-09 4.200000000000e+01
    2.880000000000e+04 4.000000000000e+00
 7 20  5  3 10  0  0.0-2.725562080741e-04-8.640199666843e-12 0.000000000000e+00
    9.900000000000e+01 6.965625000000e+01 5.176644199438e-09 1.151275983609e+00
    3.872439265251e-06 1.371489185840e-02 7.107853889465e-06 5.153668758392e+03
    3.600000000000e+04-9.126961231232e-08 3.141425986259e-01 1.545995473862e-07
    9.536734285548e-01 2.426562500000e+02-2.401640863948e+00-8.601072554910e-09
    1.739358165535e-10 1.000000000000e+00 2.104000000000e+03 0.000000000000e+00
    2.400000000000e+00 0.000000000000e+00-1.117587089539e-08 9.900000000000e+01
    2.880000000000e+04 4.000000000000e+00
 4 20  5  3 10  0  0.0-8.436990901828e-05-5.002220859751e-12 0.000000000000e+00
    1.560000000000e+02-1.681250000000e+01 4.471257674401e-09 3.025838954818e+00
   -8.102506399155e-07 7.075112080202e-04 1.347623765469e-05 5.153697383881e+03
    3.600000000000e+04-9.313225746155e-09-7.119446209283e-01 1.862645149231e-08
    9.600992025912e-01 1.221250000000e+02-2.609745944885e+00-7.882471193708e-09
    1.278624688422e-10 1.000000000000e+00 2.104000000000e+03 0.000000000000e+00
    2.400000000000e+00 0.000000000000e+00-4.190951585770e-09 6.680000000000e+02
    2.880000000000e+04 4.000000000000e+00
20 20  5  3 10  0  0.0 5.277437157929e-04 0.000000000000e+00 0.000000000000e+00
    8.000000000000e+00-6.262500000000e+01 5.424868824704e-09 1.357399632709e+00
   -3.311783075333e-06 5.062431679107e-03 4.110857844353e-06 5.153643024445e+03
    3.600000000000e+04 5.215406417847e-08-1.924196083382e+00 2.793967723846e-08
    9.334146932229e-01 2.857500000000e+02 2.651553960917e+00-8.670718313078e-09
   -9.964700784071e-11 1.000000000000e+00 2.104000000000e+03 0.000000000000e+00
    2.400000000000e+00 0.000000000000e+00-8.847564458847e-09 8.000000000000e+00
    2.880000000000e+04 4.000000000000e+00
27 20  5  3 10  0  0.0-2.835839986801e-04-1.034550223267e-11 0.000000000000e+00
    2.400000000000e+01 1.490625000000e+01 3.707297280955e-09-2.254724009642e+00
    7.413327693939e-07 8.253814186901e-03 1.138262450695e-05 5.153667942047e+03
    3.600000000000e+04-3.539025783539e-08 2.396421908089e+00-6.146728992462e-08
    9.782613583408e-01 1.704062500000e+02 5.502839998460e-01-7.579601435109e-09
   -2.964409193827e-11 1.000000000000e+00 2.104000000000e+03 0.000000000000e+00
    2.400000000000e+00 0.000000000000e+00 1.396983861923e-09 2.400000000000e+01
    2.880000000000e+04 4.000000000000e+00
16 20  5  3 10  0  0.0-1.537469215691e-04-4.433786671143e-12 0.000000000000e+00
    6.000000000000e+01-2.618750000000e+01 4.255534402946e-09-1.371438306619e+00
   -1.378357410431e-06 1.152459019795e-02 6.493180990219e-06 5.153750108719e+03
    3.600000000000e+04 2.365559339523e-07 1.439026766201e+00-5.960464477539e-08
    9.785564259915e-01 2.629062500000e+02 6.304246827585e-01-7.961760210699e-09
   -4.918061999880e-10 1.000000000000e+00 2.104000000000e+03 0.000000000000e+00
    2.400000000000e+00 0.000000000000e+00-1.071020960808e-08 6.000000000000e+01
    2.880000000000e+04 4.000000000000e+00
10 20  5  3 10  0  0.0-3.294181078672e-04-1.182343112305e-11 0.000000000000e+00
    7.100000000000e+01-7.512500000000e+01 4.705553148033e-09-2.086762202479e-01
   -3.831461071968e-06 5.553131341003e-03 5.515292286873e-06 5.153664899826e+03
    3.600000000000e+04 3.725290298462e-09-1.794101107558e+00 6.891787052155e-08
    9.650548990273e-01 2.761250000000e+02-2.628507820976e+00-8.347490563631e-09
   -1.271481533738e-10 1.000000000000e+00 2.104000000000e+03 0.000000000000e+00
    2.400000000000e+00 0.000000000000e+00 1.862645149231e-09 7.100000000000e+01
    2.880000000000e+04 4.000000000000e+00
 9 20  5  3 10  0  0.0-2.099908888340e-04-7.503331289627e-12 0.000000000000e+00
    5.400000000000e+01-2.753125000000e+01 4.660551273525e-09-1.889620102353e+00
   -1.307576894760e-06 1.549495616928e-03 1.344271004200e-05 5.153747549057e+03
    3.600000000000e+04 9.313225746155e-09-7.596567475756e-01 5.960464477539e-08
    9.527766495318e-01 1.176562500000e+02 1.805978710605e+00-7.971046311788e-09
    9.286101089098e-11 1.000000000000e+00 2.104000000000e+03 0.000000000000e+00
    2.400000000000e+00 0.000000000000e+00 1.396983861923e-09 5.400000000000e+01
    2.880000000000e+04 4.000000000000e+00
22 20  5  3 10  0  0.0-7.834117859602e-04 1.023181539495e-12 0.000000000000e+00
    3.200000000000e+01-8.231250000000e+01 5.506657945835e-09-3.117901928536e+00
   -4.392117261887e-06 7.221108651720e-03 4.416331648827e-06 5.153512645721e+03
    3.600000000000e+04 9.313225746155e-08-1.876641668081e+00 1.899898052216e-07
    9.300964483075e-01 2.723437500000e+02-1.172551394341e+00-8.694647881269e-09
   -1.203621564241e-10 1.000000000000e+00 2.104000000000e+03 0.000000000000e+00
    2.400000000000e+00 0.000000000000e+00-1.816079020500e-08 3.200000000000e+01
    2.880000000000e+04 4.000000000000e+00
11 20  5  3 10  0  0.0-2.879137173295e-04 1.068656274583e-11 0.000000000000e+00
    8.400000000000e+01 7.140625000000e+01 5.408439568931e-09 1.399350960584e+00
    3.533437848091e-06 1.591289916541e-02 7.981434464455e-06 5.153719511032e+03
    3.600000000000e+04 3.855675458908e-07 2.978733204789e+00-2.980232238770e-07
    9.128642944506e-01 1.975312500000e+02 1.978992825315e+00-8.628216542709e-09
    4.246605459591e-10 1.000000000000e+00 2.104000000000e+03 0.000000000000e+00
    2.400000000000e+00 0.000000000000e+00-1.257285475731e-08 8.400000000000e+01
    2.880000000000e+04 4.000000000000e+00
31 20  5  3 10  0  0.0-3.996165469289e-05-2.387423592154e-12 0.000000000000e+00
    8.500000000000e+01 6.515625000000e+01 5.003065540619e-09 7.733553764185e-01
    3.563240170479e-06 9.523226995952e-03 6.066635251045e-06 5.153562852859e+03
    3.600000000000e+04 9.499490261078e-08 3.296010740306e-01 1.192092895508e-07
    9.581046893403e-01 2.570000000000e+02 1.279157413698e-01-8.416779164065e-09
    1.346484657919e-10 1.000000000000e+00 2.104000000000e+03 0.000000000000e+00
    2.400000000000e+00 0.000000000000e+00-1.350417733192e-08 8.500000000000e+01
    2.880000000000e+04 4.000000000000e+00
24 20  5  3 10  0  0.0-1.252861693501e-05-4.547473508865e-13 0.000000000000e+00
    8.600000000000e+01 7.531250000000e+01 5.377009688322e-09 2.115152866390e+00
    3.781169652939e-06 9.630392072722e-03 7.268041372299e-06 5.153654197693e+03
    3.600000000000e+04-3.073364496231e-07 2.424241545334e-01-9.126961231232e-08
    9.369664081604e-01 2.266562500000e+02 6.666870089557e-01-8.446066098269e-09
    3.507288949806e-10 1.000000000000e+00 2.104000000000e+03 0.000000000000e+00
    2.400000000000e+00 0.000000000000e+00 2.793967723846e-09 8.600000000000e+01
    2.880000000000e+04 4.000000000000e+00
30 20  5  3 10  0  0.0-2.119247801602e-04-8.299139153678e-12 0.000000000000e+00
    6.100000000000e+01 7.253125000000e+01 5.458798809453e-09 1.125051880892e+00
    3.989785909653e-06 4.537404980510e-03 6.331130862236e-06 5.153651430130e+03
    3.600000000000e+04 5.960464477539e-08 3.371704579429e-01-1.303851604462e-08
    9.389867550816e-01 2.430625000000e+02-2.887839428847e+00-8.652146110900e-09
    2.250093725435e-10 1.000000000000e+00 2.104000000000e+03 0.000000000000e+00
    2.400000000000e+00 0.000000000000e+00 3.725290298462e-09 6.100000000000e+01
    2.880000000000e+04 4.000000000000e+00
15 20  5  3 10  0  0.0-2.337899059057e-04 2.614797267597e-12 0.000000000000e+00
    5.200000000000e+01-5.056250000000e+01 5.160214943665e-09-3.086065441550e+00
   -2.751126885414e-06 1.224897883367e-02 1.194141805172e-05 5.153679882050e+03
    3.600000000000e+04 2.793967723846e-08-8.485088940641e-01-2.253800630569e-07
    9.282416247153e-01 1.323437500000e+02 8.744358166760e-01-8.049978171046e-09
   -2.857261873569e-12 1.000000000000e+00 2.104000000000e+03 0.000000000000e+00
    2.400000000000e+00 0.000000000000e+00-1.117587089539e-08 5.200000000000e+01
    2.880000000000e+04 4.000000000000e+00
